[{"OBJECT_NAME":"GEESAT-6 01","OBJECT_ID":"2025-214B","EPOCH":"2026-03-09T22:49:09.909696","MEAN_MOTION":14.83119835,"ECCENTRICITY":0.00123553,"INCLINATION":49.9859,"RA_OF_ASC_NODE":48.2584,"ARG_OF_PERICENTER":212.3001,"MEAN_ANOMALY":147.7181,"EPHEMERIS_TYPE":0,"CLASSIFICATION_TYPE":"U","NORAD_CAT_ID":65713,"ELEMENT_SET_NO":999,"REV_AT_EPOCH":2477,"BSTAR":0.00034422845,"MEAN_MOTION_DOT":2.612e-5,"MEAN_MOTION_DDOT":0},{"OBJECT_NAME":"SL-24 DEB","OBJECT_ID":"2006-029C","EPOCH":"2026-03-09T21:47:25.301472","MEAN_MOTION":13.35098468,"ECCENTRICITY":0.08212164,"INCLINATION":64.5748,"RA_OF_ASC_NODE":270.8752,"ARG_OF_PERICENTER":290.3345,"MEAN_ANOMALY":61.134,"EPHEMERIS_TYPE":0,"CLASSIFICATION_TYPE":"U","NORAD_CAT_ID":29256,"ELEMENT_SET_NO":999,"REV_AT_EPOCH":95739,"BSTAR":5.8382867e-5,"MEAN_MOTION_DOT":1.05e-6,"MEAN_MOTION_DDOT":0}]
